STARLINK-5865           
1 57053U 23088F   25342.44599890  .00001145  00000+0  99839-4 0  9997
2 57053  43.0035 243.3245 0001146 264.8467  95.2245 15.02524924136640
STARLINK-5881           
1 57054U 23088G   25342.70079025  .00000471  00000+0  49953-4 0  9993
2 57054  43.0031 241.8017 0001274 276.2864  83.7834 15.02544492136689
STARLINK-6237           
1 57055U 23088H   25342.05488523 -.00000251  00000+0 -35076-5 0  9999
2 57055  43.0041 245.5520 0001150 274.1969  85.8742 15.02533008136588
STARLINK-6353           
1 57056U 23088J   25342.43599634  .00001736  00000+0  14361-3 0  9997
2 57056  43.0020 243.2537 0001048 273.6908  86.3815 15.02528123136648
STARLINK-6223           
1 57057U 23088K   25342.69857400 -.00000711  00000+0 -37535-4 0  9997
2 57057  43.0030 241.7611 0001368 267.5512  92.5173 15.02536524136688
STARLINK-6217           
1 57058U 23088L   25342.77167642  .00003684  00000+0  28723-3 0  9997
2 57058  43.0038 241.4718 0001540 255.0814 104.9858 15.02587726136690
STARLINK-6211           
1 57059U 23088M   25342.73186843  .00000123  00000+0  24202-4 0  9992
2 57059  43.0043 242.0215 0001320 268.9956  91.0735 15.02538289136681
STARLINK-6227           
1 57060U 23088N   25342.13690252  .00000902  00000+0  81875-4 0  9996
2 57060  43.0035 245.2987 0001344 261.2283  98.8407 15.02534233136596
STARLINK-5869           
1 57061U 23088P   25342.82154626 -.00000727  00000+0 -38738-4 0  9990
2 57061  43.0036 240.9763 0001178 265.9765  94.0943 15.02531931135722
STARLINK-5536           
1 57062U 23088Q   25342.75309713 -.00000312  00000+0 -80031-5 0  9996
2 57062  43.0017 228.3059 0001491 257.8167 102.2509 15.02541705136848
STARLINK-5832           
1 57063U 23088R   25342.74840740  .00000316  00000+0  38448-4 0  9992
2 57063  43.0030 241.2866 0001070 276.6799  83.3921 15.02533511136693
STARLINK-5822           
1 57064U 23088S   25342.05379579 -.00001587  00000+0 -10250-3 0  9997
2 57064  43.0052 245.5344 0001241 270.5381  89.5319 15.02524137135609
STARLINK-5830           
1 57065U 23088T   25342.73851465 -.00000895  00000+0 -51178-4 0  9998
2 57065  43.0035 242.0585 0001463 274.6987  85.3688 15.02548434135703
STARLINK-5827           
1 57066U 23088U   25342.75173782 -.00000185  00000+0  13715-5 0  9997
2 57066  43.0040 241.3193 0001289 263.3399  96.7296 15.02535284135716
STARLINK-5824           
1 57067U 23088V   25342.71522043 -.00000282  00000+0 -58079-5 0  9993
2 57067  43.0013 241.8867 0001190 270.3624  89.7082 15.02540430136681
STARLINK-5844           
1 57068U 23088W   25342.41267975  .00003296  00000+0  25897-3 0  9997
2 57068  43.0038 243.0702 0000961 269.6662  90.4070 15.02527317136640
STARLINK-5821           
1 57069U 23088X   25342.73213252 -.00000078  00000+0  93168-5 0  9996
2 57069  43.0028 229.0242 0000746 261.9008  98.1750 15.02535108136662
STARLINK-5828           
1 57070U 23088Y   25342.41750240  .00002548  00000+0  20369-3 0  9990
2 57070  43.0022 230.9609 0000975 274.0660  86.0071 15.02529440136786
STARLINK-5834           
1 57071U 23088Z   25342.67341646  .00000342  00000+0  40411-4 0  9996
2 57071  43.0031 229.4459 0001199 268.1744  91.8961 15.02543658136654
STARLINK-5843           
1 57072U 23088AA  25342.74544328 -.00000591  00000+0 -28652-4 0  9998
2 57072  43.0000 229.1230 0001085 280.3487  79.7233 15.02547715135855
STARLINK-5838           
1 57073U 23088AB  25342.74877894  .00000172  00000+0  27822-4 0  9997
2 57073  43.0041 229.1511 0001225 269.1554  90.9148 15.02539668135857
STARLINK-5773           
1 57074U 23088AC  25342.07699465 -.00002911  00000+0 -20068-3 0  9999
2 57074  43.0035 244.8487 0001406 271.0812  88.9869 15.02506073136590
STARLINK-5542           
1 57075U 23088AD  25342.72768799  .00001118  00000+0  97829-4 0  9995
2 57075  43.0027 228.9868 0001056 276.5882  83.4840 15.02538345136839
STARLINK-6155           
1 57076U 23088AE  25342.74322361  .00002407  00000+0  19325-3 0  9995
2 57076  43.0031 229.1069 0001156 274.6014  85.4697 15.02526965136666
STARLINK-6194           
1 57077U 23088AF  25342.73324036 -.00000134  00000+0  51745-5 0  9996
2 57077  43.0026 229.0324 0000866 284.3216  75.7531 15.02538299137004
STARLINK-6246           
1 57078U 23088AG  25342.41685775  .00001460  00000+0  98258-4 0  9993
2 57078  42.9996 230.1052 0000911 278.5597  81.5145 15.11243465136629
STARLINK-6245           
1 57079U 23088AH  25342.72214691  .00001803  00000+0  14851-3 0  9990
2 57079  43.0023 228.9449 0001299 272.0536  88.0157 15.02541690136839
STARLINK-6243           
1 57080U 23088AJ  25342.73657233  .00002574  00000+0  20558-3 0  9993
2 57080  43.0019 229.0602 0000999 275.9823  84.0906 15.02532630136669
STARLINK-6184           
1 57081U 23088AK  25342.71880932  .00000132  00000+0  24842-4 0  9995
2 57081  43.0031 228.9230 0001172 272.7180  87.3528 15.02549927136836
STARLINK-6248           
1 57082U 23088AL  25342.72547088 -.00000131  00000+0  53517-5 0  9991
2 57082  43.0039 228.9752 0001426 264.3863  95.6816 15.02542423136837
STARLINK-6253           
1 57083U 23088AM  25342.37865554  .00000997  00000+0  88868-4 0  9999
2 57083  43.0041 230.6678 0001152 275.7137  84.3574 15.02530451136782
STARLINK-6240           
1 57084U 23088AN  25342.71991742 -.00002592  00000+0 -17681-3 0  9996
2 57084  43.0032 228.9321 0001204 267.2764  92.7941 15.02548855136832
STARLINK-6232           
1 57085U 23088AP  25342.70660095  .00000478  00000+0  50478-4 0  9991
2 57085  43.0036 228.8305 0001011 277.6658  82.4070 15.02539268136838
STARLINK-6247           
1 57086U 23088AQ  25342.71659205  .00000090  00000+0  21768-4 0  9994
2 57086  43.0030 228.9058 0001219 264.1612  95.9092 15.02534298136831
STARLINK-6251           
1 57087U 23088AR  25342.70327227 -.00000354  00000+0 -11116-4 0  9991
2 57087  43.0030 228.8051 0001111 264.4558  95.6157 15.02535279136836
STARLINK-6257           
1 57088U 23088AS  25342.71327301 -.00001536  00000+0 -98691-4 0  9992
2 57088  43.0019 228.8813 0000904 270.4856  89.5883 15.02526877136839
STARLINK-6259           
1 57089U 23088AT  25342.42737086  .00003359  00000+0  26357-3 0  9998
2 57089  43.0032 230.1696 0001430 265.7001  94.3678 15.02542313136798
STARLINK-6254           
1 57090U 23088AU  25342.03738479  .00000107  00000+0  22993-4 0  9995
2 57090  43.0035 232.4095 0001321 260.1482  99.9211 15.02538560136739
STARLINK-6262           
1 57091U 23088AV  25342.69662094 -.00003868  00000+0 -27145-3 0  9999
2 57091  43.0038 228.7537 0000648 281.7590  78.3179 15.02537391136838
STARLINK-6225           
1 57092U 23088AW  25342.03405179  .00000142  00000+0  25608-4 0  9990
2 57092  43.0035 232.3831 0001249 271.0025  89.0674 15.02534144136738
STARLINK-6229           
1 57093U 23088AX  25342.42403927  .00001077  00000+0  94814-4 0  9996
2 57093  43.0019 230.1452 0001370 276.8356  83.2330 15.02537734136790
STARLINK-6235           
1 57094U 23088AY  25342.42293139  .00000844  00000+0  77546-4 0  9993
2 57094  43.0031 230.1408 0001313 268.8038  91.2654 15.02535208136793
STARLINK-6132           
1 57101U 23090A   25342.57982067 -.00000285  00000+0 -60197-5 0  9992
2 57101  43.0040  50.0987 0001275 268.6133  91.4563 15.02542253136704
STARLINK-6111           
1 57102U 23090B   25342.50778759  .00002260  00000+0  18226-3 0  9994
2 57102  43.0060  50.4217 0001445 267.4485  92.6192 15.02542762136697
STARLINK-6130           
1 57104U 23090D   25342.57648598  .00001432  00000+0  12104-3 0  9999
2 57104  43.0050  50.0778 0001031 268.8605  91.2119 15.02539926136700
STARLINK-6097           
1 57105U 23090E   25342.57314905  .00002057  00000+0  16724-3 0  9998
2 57105  43.0042  50.0512 0001323 273.8952  86.1739 15.02545834136709
STARLINK-6118           
1 57106U 23090F   25342.50111810 -.00002689  00000+0 -18392-3 0  9998
2 57106  43.0033  50.3642 0001073 288.3112  71.7613 15.02560869136692
STARLINK-6131           
1 57107U 23090G   25342.55428705  .00000779  00000+0  72733-4 0  9994
2 57107  43.0044  49.9097 0001357 262.3571  97.7117 15.02539365136705
STARLINK-6099           
1 57108U 23090H   25342.56983036 -.00000781  00000+0 -42739-4 0  9997
2 57108  43.0034  50.0197 0001356 273.1427  86.9260 15.02534134136706
STARLINK-6139           
1 57109U 23090J   25342.55984105  .00000519  00000+0  53475-4 0  9991
2 57109  43.0050  49.9509 0001262 265.7098  94.3600 15.02533965136708
STARLINK-6134           
1 57110U 23090K   25342.57093228  .00001169  00000+0  10158-3 0  9994
2 57110  43.0049  50.0354 0001126 274.6166  85.4548 15.02545937136707
STARLINK-6140           
1 57111U 23090L   25342.54763338  .00000641  00000+0  62557-4 0  9993
2 57111  43.0054  49.8597 0001382 270.1062  89.9622 15.02531633136709
STARLINK-6141           
1 57112U 23090M   25342.56428051  .00000904  00000+0  82001-4 0  9994
2 57112  43.0061  49.9862 0001218 267.9554  92.1149 15.02536055136705
STARLINK-6142           
1 57113U 23090N   25342.61965574  .00001367  00000+0  11621-3 0  9990
2 57113  43.0069  49.5397 0001156 270.5430  89.5280 15.02550286136716
STARLINK-6125           
1 57114U 23090P   25342.21746807  .00000436  00000+0  47347-4 0  9994
2 57114  43.0055  51.6771 0001547 277.5015  82.5652 15.02533698136659
STARLINK-6085           
1 57115U 23090Q   25342.44850253  .00013494  00000+0  84378-3 0  9993
2 57115  43.0009  45.7474 0013095 334.9474  25.0735 15.09248388136741
STARLINK-6129           
1 57116U 23090R   25342.62298622 -.00002254  00000+0 -15183-3 0  9992
2 57116  43.0051  49.5621 0001322 264.7722  95.2969 15.02544057136711
STARLINK-6148           
1 57117U 23090S   25342.47448930  .00001590  00000+0  13278-3 0  9998
2 57117  43.0038  50.1689 0001361 268.3517  91.7170 15.02530890136685
STARLINK-6151           
1 57118U 23090T   25342.83335647  .00094981  00000+0  92587-3 0  9995
2 57118  42.9894 344.9122 0008465 116.3300 276.9084 15.65163397  5986
